GLOBALSTAR M023         
1 25621U 99004A   25040.83912785 -.00000074  00000+0  16814-3 0  9996
2 25621  52.0106  81.2192 0010031 204.3929 327.5134 12.62494574199647
GLOBALSTAR M040         
1 25622U 99004B   25040.84378014 -.00000050  00000+0  30099-3 0  9994
2 25622  51.9917  85.1692 0001290 120.7298  51.0815 12.62000810199170
GLOBALSTAR M036         
1 25623U 99004C   25040.74847528 -.00000068  00000+0  21538-3 0  9992
2 25623  51.9936 216.2205 0011466 164.3396 208.2172 11.86591957163858
GLOBALSTAR M038         
1 25624U 99004D   25040.88099721 -.00000065  00000+0  25022-3 0  9991
2 25624  51.9972  78.1972 0002250 146.0573  25.9218 12.32520162186672
GLOBALSTAR M022         
1 25649U 99012A   25040.96913146 -.00000035  00000+0  62066-3 0  9998
2 25649  52.0032 276.7415 0001622 292.1318  81.2667 12.02495643161070
GLOBALSTAR M046         
1 25651U 99012C   25040.80896397 -.00000013  00000+0  83977-3 0  9992
2 25651  52.0026 231.9577 0002469  25.2954 348.4704 12.09405416168252
GLOBALSTAR M037         
1 25652U 99012D   25040.77719603 -.00000066  00000+0  21161-3 0  9998
2 25652  51.9980 212.0728 0000895 254.0180 120.2599 12.62435936195181
